start=new Date('2021-09-04T00:00:00.000Z').valueOf();
sats=[{"PERIOD":"95.592","EPHEMERIS_TYPE":"0","CLASSIFICATION_TYPE":"U","FILE":"3108332","TLE_LINE2":"2 46552  53.0552   0.1242 0001138 109.2020 250.9092 15.06401734 51318","TLE_LINE1":"1 46552U 20070W   21246.61505530 -.00000693  00000-0 -27654-4 0  9999","MEAN_ELEMENT_THEORY":"SGP4","MEAN_MOTION_DDOT":"0.0000000000000","PERIAPSIS":"546.420","CENTER_NAME":"EARTH","RCS_SIZE":"LARGE","MEAN_MOTION":"15.06401734","INCLINATION":"53.0552","SITE":"AFETR","TIME_SYSTEM":"UTC","SEMIMAJOR_AXIS":"6925.343","RA_OF_ASC_NODE":"0.1242","REV_AT_EPOCH":"5131","LAUNCH_DATE":"2020-10-06","MEAN_MOTION_DOT":"-0.00000693","EPOCH":"2021-09-03T14:45:40.777920","OBJECT_TYPE":"PAYLOAD","COUNTRY_CODE":"US","APOAPSIS":"547.996","GP_ID":"184050114","DECAY_DATE":null,"ECCENTRICITY":"0.00011380","NORAD_CAT_ID":"46552","REF_FRAME":"TEME","MEAN_ANOMALY":"250.9092","ELEMENT_SET_NO":"999","OBJECT_ID":"2020-070W","ARG_OF_PERICENTER":"109.2020","OBJECT_NAME":"STARLINK-1649","BSTAR":"-0.00002765400000"},{"GP_ID":"184048864","DECAY_DATE":null,"APOAPSIS":"548.045","OBJECT_TYPE":"PAYLOAD","COUNTRY_CODE":"US","MEAN_MOTION_DOT":"0.00002217","EPOCH":"2021-09-03T15:26:09.977856","LAUNCH_DATE":"2020-10-06","REV_AT_EPOCH":"5152","BSTAR":"0.00016770000000","OBJECT_NAME":"STARLINK-1664","ARG_OF_PERICENTER":"122.4255","ELEMENT_SET_NO":"999","OBJECT_ID":"2020-070X","MEAN_ANOMALY":"237.6849","NORAD_CAT_ID":"46553","ECCENTRICITY":"0.00011870","REF_FRAME":"TEME","MEAN_MOTION_DDOT":"0.0000000000000","PERIAPSIS":"546.401","CENTER_NAME":"EARTH","MEAN_ELEMENT_THEORY":"SGP4","TLE_LINE1":"1 46553U 20070X   21246.64317104  .00002217  00000-0  16770-3 0  9999","FILE":"3108332","TLE_LINE2":"2 46553  53.0555 344.9987 0001187 122.4255 237.6849 15.06396853 51528","EPHEMERIS_TYPE":"0","PERIOD":"95.592","CLASSIFICATION_TYPE":"U","SEMIMAJOR_AXIS":"6925.358","RA_OF_ASC_NODE":"344.9987","TIME_SYSTEM":"UTC","SITE":"AFETR","INCLINATION":"53.0555","MEAN_MOTION":"15.06396853","RCS_SIZE":"LARGE"},{"MEAN_ELEMENT_THEORY":"SGP4","MEAN_MOTION_DDOT":"0.0000000000000","PERIAPSIS":"546.259","CENTER_NAME":"EARTH","FILE":"3108332","TLE_LINE2":"2 46554  53.0551 359.7627 0001351 114.6827 245.4302 15.06406292 51329","EPHEMERIS_TYPE":"0","PERIOD":"95.592","CLASSIFICATION_TYPE":"U","TLE_LINE1":"1 46554U 20070Y   21246.69614864 -.00001167  00000-0 -59459-4 0  9995","TIME_SYSTEM":"UTC","SITE":"AFETR","SEMIMAJOR_AXIS":"6925.329","RA_OF_ASC_NODE":"359.7627","RCS_SIZE":"LARGE","INCLINATION":"53.0551","MEAN_MOTION":"15.06406292","APOAPSIS":"548.130","GP_ID":"184049114","DECAY_DATE":null,"MEAN_MOTION_DOT":"-0.00001167","EPOCH":"2021-09-03T16:42:27.242496","LAUNCH_DATE":"2020-10-06","REV_AT_EPOCH":"5132","OBJECT_TYPE":"PAYLOAD","COUNTRY_CODE":"US","ARG_OF_PERICENTER":"114.6827","BSTAR":"-0.00005945900000","OBJECT_NAME":"STARLINK-1671","MEAN_ANOMALY":"245.4302","ECCENTRICITY":"0.00013510","NORAD_CAT_ID":"46554","REF_FRAME":"TEME","ELEMENT_SET_NO":"999","OBJECT_ID":"2020-070Y"},{"OBJECT_TYPE":"PAYLOAD","COUNTRY_CODE":"US","LAUNCH_DATE":"2020-10-06","REV_AT_EPOCH":"5167","MEAN_MOTION_DOT":"0.00475741","EPOCH":"2021-09-03T16:12:26.321760","GP_ID":"184049862","DECAY_DATE":null,"APOAPSIS":"531.631","ELEMENT_SET_NO":"999","OBJECT_ID":"2020-070Z","NORAD_CAT_ID":"46555","ECCENTRICITY":"0.00023850","REF_FRAME":"TEME","MEAN_ANOMALY":"188.4445","BSTAR":"0.02586800000000","OBJECT_NAME":"STARLINK-1674","ARG_OF_PERICENTER":"171.6587","TLE_LINE1":"1 46555U 20070Z   21246.67530465  .00475741  00000-0  25868-1 0  9993","EPHEMERIS_TYPE":"0","PERIOD":"95.236","CLASSIFICATION_TYPE":"U","FILE":"3108332","TLE_LINE2":"2 46555  53.0565 334.5617 0002385 171.6587 188.4445 15.12039322 51674","MEAN_MOTION_DDOT":"0.0000000000000","CENTER_NAME":"EARTH","PERIAPSIS":"528.336","MEAN_ELEMENT_THEORY":"SGP4","MEAN_MOTION":"15.12039322","INCLINATION":"53.0565","RCS_SIZE":"LARGE","SEMIMAJOR_AXIS":"6908.119","RA_OF_ASC_NODE":"334.5617","SITE":"AFETR","TIME_SYSTEM":"UTC"},{"LAUNCH_DATE":"2020-10-06","REV_AT_EPOCH":"5111","EPOCH":"2021-09-03T16:32:30.269472","MEAN_MOTION_DOT":"-0.00000357","COUNTRY_CODE":"US","OBJECT_TYPE":"PAYLOAD","APOAPSIS":"548.025","DECAY_DATE":null,"GP_ID":"184050615","REF_FRAME":"TEME","ECCENTRICITY":"0.00011550","NORAD_CAT_ID":"46556","MEAN_ANOMALY":"242.9988","OBJECT_ID":"2020-070AA","ELEMENT_SET_NO":"999","ARG_OF_PERICENTER":"117.1119","OBJECT_NAME":"STARLINK-1676","BSTAR":"-0.00000510800000","EPHEMERIS_TYPE":"0","PERIOD":"95.592","CLASSIFICATION_TYPE":"U","TLE_LINE2":"2 46556  53.0563  14.7847 0001155 117.1119 242.9988 15.06396129 51116","FILE":"3108332","TLE_LINE1":"1 46556U 20070AA  21246.68923923 -.00000357  00000-0 -51080-5 0  9998","MEAN_ELEMENT_THEORY":"SGP4","PERIAPSIS":"546.426","CENTER_NAME":"EARTH","MEAN_MOTION_DDOT":"0.0000000000000","RCS_SIZE":"LARGE","MEAN_MOTION":"15.06396129","INCLINATION":"53.0563","SITE":"AFETR","TIME_SYSTEM":"UTC","RA_OF_ASC_NODE":"14.7847","SEMIMAJOR_AXIS":"6925.360"},{"MEAN_MOTION_DOT":"0.00001139","EPOCH":"2021-09-03T15:59:59.371296","LAUNCH_DATE":"2020-10-06","REV_AT_EPOCH":"5132","OBJECT_TYPE":"PAYLOAD","COUNTRY_CODE":"US","APOAPSIS":"548.076","GP_ID":"184049365","DECAY_DATE":null,"MEAN_ANOMALY":"240.4760","NORAD_CAT_ID":"46557","ECCENTRICITY":"0.00012400","REF_FRAME":"TEME","ELEMENT_SET_NO":"999","OBJECT_ID":"2020-070AB","ARG_OF_PERICENTER":"119.6353","OBJECT_NAME":"STARLINK-1679","BSTAR":"0.00009535400000","FILE":"3108332","TLE_LINE2":"2 46557  53.0553 359.8851 0001240 119.6353 240.4760 15.06398926 51327","PERIOD":"95.592","CLASSIFICATION_TYPE":"U","EPHEMERIS_TYPE":"0","TLE_LINE1":"1 46557U 20070AB  21246.66665939  .00001139  00000-0  95354-4 0  9995","MEAN_ELEMENT_THEORY":"SGP4","MEAN_MOTION_DDOT":"0.0000000000000","PERIAPSIS":"546.358","CENTER_NAME":"EARTH","RCS_SIZE":"LARGE","INCLINATION":"53.0553","MEAN_MOTION":"15.06398926","TIME_SYSTEM":"UTC","SITE":"AFETR","SEMIMAJOR_AXIS":"6925.352","RA_OF_ASC_NODE":"359.8851"},{"TIME_SYSTEM":"UTC","SITE":"AFETR","RA_OF_ASC_NODE":"0.1599","SEMIMAJOR_AXIS":"6925.363","RCS_SIZE":"LARGE","INCLINATION":"53.0550","MEAN_MOTION":"15.06395191","MEAN_ELEMENT_THEORY":"SGP4","CENTER_NAME":"EARTH","PERIAPSIS":"546.388","MEAN_MOTION_DDOT":"0.0000000000000","TLE_LINE2":"2 46558  53.0550   0.1599 0001214 123.1345 236.9761 15.06395191 51289","FILE":"3108332","EPHEMERIS_TYPE":"0","PERIOD":"95.592","CLASSIFICATION_TYPE":"U","TLE_LINE1":"1 46558U 20070AC  21246.60769260 -.00000411  00000-0 -87040-5 0  9990","ARG_OF_PERICENTER":"123.1345","BSTAR":"-0.00000870400000","OBJECT_NAME":"STARLINK-1680","MEAN_ANOMALY":"236.9761","REF_FRAME":"TEME","NORAD_CAT_ID":"46558","ECCENTRICITY":"0.00012140","ELEMENT_SET_NO":"999","OBJECT_ID":"2020-070AC","APOAPSIS":"548.069","DECAY_DATE":null,"GP_ID":"184049615","EPOCH":"2021-09-03T14:35:04.640640","MEAN_MOTION_DOT":"-0.00000411","REV_AT_EPOCH":"5128","LAUNCH_DATE":"2020-10-06","COUNTRY_CODE":"US","OBJECT_TYPE":"PAYLOAD"},{"TIME_SYSTEM":"UTC","SITE":"AFETR","RA_OF_ASC_NODE":"344.6051","SEMIMAJOR_AXIS":"6925.363","RCS_SIZE":"LARGE","INCLINATION":"53.0556","MEAN_MOTION":"15.06395184","MEAN_ELEMENT_THEORY":"SGP4","CENTER_NAME":"EARTH","PERIAPSIS":"546.650","MEAN_MOTION_DDOT":"0.0000000000000","TLE_LINE2":"2 46559  53.0556 344.6051 0000835 120.0280 240.0792 15.06395184 51537","FILE":"3108332","CLASSIFICATION_TYPE":"U","PERIOD":"95.592","EPHEMERIS_TYPE":"0","TLE_LINE1":"1 46559U 20070AD  21246.72886571  .00000012  00000-0  19707-4 0  9998","ARG_OF_PERICENTER":"120.0280","BSTAR":"0.00001970700000","OBJECT_NAME":"STARLINK-1681","MEAN_ANOMALY":"240.0792","REF_FRAME":"TEME","NORAD_CAT_ID":"46559","ECCENTRICITY":"0.00008350","ELEMENT_SET_NO":"999","OBJECT_ID":"2020-070AD","APOAPSIS":"547.807","DECAY_DATE":null,"GP_ID":"184050363","EPOCH":"2021-09-03T17:29:33.997344","MEAN_MOTION_DOT":"0.00000012","LAUNCH_DATE":"2020-10-06","REV_AT_EPOCH":"5153","COUNTRY_CODE":"US","OBJECT_TYPE":"PAYLOAD"},{"PERIAPSIS":"546.302","CENTER_NAME":"EARTH","MEAN_MOTION_DDOT":"0.0000000000000","MEAN_ELEMENT_THEORY":"SGP4","TLE_LINE1":"1 46560U 20070AE  21246.62245325  .00001887  00000-0  14554-3 0  9990","TLE_LINE2":"2 46560  53.0568   0.0889 0001323 122.3287 237.7830 15.06398372 51313","FILE":"3108332","PERIOD":"95.592","EPHEMERIS_TYPE":"0","CLASSIFICATION_TYPE":"U","RA_OF_ASC_NODE":"0.0889","SEMIMAJOR_AXIS":"6925.354","TIME_SYSTEM":"UTC","SITE":"AFETR","INCLINATION":"53.0568","MEAN_MOTION":"15.06398372","RCS_SIZE":"LARGE","DECAY_DATE":null,"GP_ID":"184050115","APOAPSIS":"548.135","COUNTRY_CODE":"US","OBJECT_TYPE":"PAYLOAD","EPOCH":"2021-09-03T14:56:19.960800","MEAN_MOTION_DOT":"0.00001887","LAUNCH_DATE":"2020-10-06","REV_AT_EPOCH":"5131","OBJECT_NAME":"STARLINK-1706","BSTAR":"0.00014554000000","ARG_OF_PERICENTER":"122.3287","ELEMENT_SET_NO":"999","OBJECT_ID":"2020-070AE","MEAN_ANOMALY":"237.7830","REF_FRAME":"TEME","NORAD_CAT_ID":"46560","ECCENTRICITY":"0.00013230"},{"CLASSIFICATION_TYPE":"U","PERIOD":"95.593","EPHEMERIS_TYPE":"0","FILE":"3108332","TLE_LINE2":"2 46561  53.0563 359.7236 0001155 136.5510 223.5571 15.06391898 51320","TLE_LINE1":"1 46561U 20070AF  21246.70352738 -.00000759  00000-0 -32067-4 0  9996","MEAN_ELEMENT_THEORY":"SGP4","MEAN_MOTION_DDOT":"0.0000000000000","PERIAPSIS":"546.439","CENTER_NAME":"EARTH","RCS_SIZE":"LARGE","MEAN_MOTION":"15.06391898","INCLINATION":"53.0563","SITE":"AFETR","TIME_SYSTEM":"UTC","SEMIMAJOR_AXIS":"6925.373","RA_OF_ASC_NODE":"359.7236","LAUNCH_DATE":"2020-10-06","REV_AT_EPOCH":"5132","MEAN_MOTION_DOT":"-0.00000759","EPOCH":"2021-09-03T16:53:04.765632","OBJECT_TYPE":"PAYLOAD","COUNTRY_CODE":"US","APOAPSIS":"548.038","GP_ID":"184048865","DECAY_DATE":null,"NORAD_CAT_ID":"46561","ECCENTRICITY":"0.00011550","REF_FRAME":"TEME","MEAN_ANOMALY":"223.5571","ELEMENT_SET_NO":"999","OBJECT_ID":"2020-070AF","ARG_OF_PERICENTER":"136.5510","OBJECT_NAME":"STARLINK-1709","BSTAR":"-0.00003206700000"}];
